      2.10          N: GNSS NAV DATA                        RINEX VERSION / TYPE
fic2rin                                 02/02/2024 00:17:59 PGM / RUN BY / DATE
                                                            END OF HEADER
8  24  2  1  1 59 44.0 -.164879951626D-03 -.193267624127D-11  .000000000000D+00
     .110000000000D+02 -.237500000000D+02  .484198740250D-08 -.172422147249D+01
    -.149384140968D-05  .929129659198D-02  .550970435143D-05  .515358016205D+04
     .352784000000D+06  .279396772385D-07  .307108536962D+01 -.111758708954D-06
     .955200717955D+00  .268375000000D+03  .310521149309D+00 -.830284584686D-08
    -.116076263614D-09  .100000000000D+01  .229900000000D+04  .000000000000D+00
     .240000000000D+01  .000000000000D+00  .512227416039D-08  .110000000000D+02
     .345600000000D+06  .400000000000D+01
10 24  2  1 14  0  0.0 -.715972855687D-04 -.147792889038D-11  .000000000000D+00
     .800000000000D+01  .818750000000D+01  .417910264783D-08  .309192486148D+00
     .478699803352D-06  .931130780373D-02  .669248402119D-05  .515368465233D+04
     .396000000000D+06 -.502914190292D-07 -.108651074672D+01  .216066837311D-06
     .982201181056D+00  .263375000000D+03 -.238198851547D+01 -.804783522464D-08
     .314655963827D-09  .100000000000D+01  .229900000000D+04  .000000000000D+00
     .240000000000D+01  .000000000000D+00  .232830643654D-08  .800000000000D+01
     .388800000000D+06  .400000000000D+01
5  24  2  1 14  0  0.0 -.160163268447D-03 -.147792889038D-11  .000000000000D+00
     .103000000000D+03  .656250000000D+00  .431017953628D-08 -.138079081651D+01
     .253319740295D-06  .565638206899D-02  .647827982903D-05  .515355456734D+04
     .396000000000D+06  .409781932831D-07 -.113376442703D+01  .782310962677D-07
     .969487360869D+00  .256125000000D+03  .123333333498D+01 -.804319217410D-08
     .323227749447D-09  .100000000000D+01  .229900000000D+04  .000000000000D+00
     .240000000000D+01  .000000000000D+00 -.111758708954D-07  .103000000000D+03
     .388800000000D+06  .400000000000D+01
6  24  2  1 14  0  0.0  .423646066338D-03 -.142108547152D-10  .000000000000D+00
     .730000000000D+02 -.190625000000D+02  .366550982605D-08  .264080299058D+01
    -.845640897751D-06  .313855835702D-02  .872462987900D-05  .515355876350D+04
     .396000000000D+06  .931322574615D-08 -.212128872517D+01 -.204890966415D-07
     .989695199818D+00  .227906250000D+03 -.786231900892D+00 -.763496088391D-08
    -.464305054455D-11  .100000000000D+01  .229900000000D+04  .000000000000D+00
     .240000000000D+01  .000000000000D+00  .372529029846D-08  .730000000000D+02
     .388800000000D+06  .400000000000D+01
4  24  2  1 14  0  0.0  .280876643956D-03  .954969436862D-11  .000000000000D+00
     .223000000000D+03 -.480625000000D+02  .465305096111D-08 -.195657116121D+01
    -.266917049885D-05  .282194500323D-02  .708363950253D-05  .515358453560D+04
     .396000000000D+06  .111758708954D-07 -.443684766966D-02 -.186264514923D-07
     .964568164239D+00  .246906250000D+03 -.299380714925D+01 -.808569394447D-08
    -.521450291926D-10  .100000000000D+01  .229900000000D+04  .000000000000D+00
     .240000000000D+01  .000000000000D+00 -.465661287308D-08  .223000000000D+03
     .388800000000D+06  .400000000000D+01
3  24  2  1 14  0  0.0  .165099743754D-03  .250111042988D-10  .000000000000D+00
     .180000000000D+03  .234375000000D+01  .411017120513D-08  .137411695351D+01
     .596046447754D-07  .505908601917D-02  .673905014992D-05  .515378481102D+04
     .396000000000D+06 -.782310962677D-07 -.108393302655D+01  .335276126862D-07
     .982513852000D+00  .259187500000D+03  .107177937232D+01 -.798426114795D-08
     .360372153804D-09  .100000000000D+01  .229900000000D+04  .000000000000D+00
     .340000000000D+01  .000000000000D+00  .186264514923D-08  .180000000000D+03
     .388800000000D+06  .400000000000D+01
7  24  2  1 14  0  0.0 -.515440478921D-04 -.920863385545D-11  .000000000000D+00
     .460000000000D+02 -.278125000000D+01  .477091301339D-08  .174810869378D+01
    -.251457095146D-06  .178770157509D-01  .110156834126D-04  .515367901039D+04
     .396000000000D+06 -.415369868279D-06  .100877175836D+01 -.270083546638D-06
     .950232664250D+00  .166968750000D+03 -.215359906157D+01 -.813926760459D-08
    -.867893294096D-10  .100000000000D+01  .229900000000D+04  .000000000000D+00
     .240000000000D+01  .000000000000D+00 -.111758708954D-07  .460000000000D+02
     .388800000000D+06  .400000000000D+01
8  24  2  1 14  0  0.0 -.164962373674D-03 -.193267624127D-11  .000000000000D+00
     .280000000000D+02 -.143437500000D+02  .474734060293D-08 -.170387547995D+01
    -.819563865662D-06  .929472013377D-02  .496767461300D-05  .515358074379D+04
     .396000000000D+06 -.167638063431D-07  .307072579020D+01 -.113621354103D-06
     .955191764897D+00  .281031250000D+03  .310755457584D+00 -.828284501374D-08
    -.151792037033D-09  .100000000000D+01  .229900000000D+04  .000000000000D+00
     .240000000000D+01  .000000000000D+00  .512227416039D-08  .280000000000D+02
     .388800000000D+06  .400000000000D+01
31 24  2  1 14  0  0.0 -.227604061365D-03 -.227373675443D-12  .000000000000D+00
     .490000000000D+02  .108750000000D+02  .468698094586D-08  .896246715405D+00
     .812113285065D-06  .105929743731D-01  .103730708361D-04  .515367828751D+04
     .396000000000D+06 -.558793544769D-07  .102979138665D+01  .111758708954D-06
     .954229058008D+00  .177593750000D+03  .655069596129D+00 -.810962351266D-08
    -.202151277555D-09  .100000000000D+01  .229900000000D+04  .000000000000D+00
     .240000000000D+01  .000000000000D+00 -.135041773319D-07  .490000000000D+02
     .388800000000D+06  .400000000000D+01
18 24  2  1 14  0  0.0 -.545833725482D-03 -.875388650456D-11  .000000000000D+00
     .118000000000D+03 -.996875000000D+01  .403945397376D-08  .254983603070D+01
    -.530853867531D-06  .383101752959D-02  .888481736183D-05  .515363003922D+04
     .396000000000D+06 -.689178705215D-07 -.211556660449D+01  .130385160446D-07
     .974475828133D+00  .215718750000D+03 -.302005000219D+01 -.782032574796D-08
     .175007289756D-10  .100000000000D+01  .229900000000D+04  .000000000000D+00
     .240000000000D+01  .000000000000D+00 -.838190317154D-08  .118000000000D+03
     .388800000000D+06  .400000000000D+01
12 24  2  1 14  0  0.0 -.473705586046D-03 -.375166564481D-11  .000000000000D+00
     .760000000000D+02  .538750000000D+02  .460554898246D-08  .104735321641D+01
     .268593430519D-05  .895851710811D-02  .665895640850D-05  .515371621132D+04
     .396000000000D+06 -.191852450371D-06  .212451294395D+01 -.391155481339D-07
     .962999543013D+00  .253218750000D+03  .140867256194D+01 -.825927260328D-08
    -.678599694973D-11  .100000000000D+01  .229900000000D+04  .000000000000D+00
     .240000000000D+01  .000000000000D+00 -.125728547573D-07  .760000000000D+02
     .388800000000D+06  .400000000000D+01
24 24  2  1 14  0  0.0 -.424376688898D-03 -.659383658785D-11  .000000000000D+00
     .780000000000D+02 -.853125000000D+01  .500735143343D-08  .279860699095D+01
    -.568106770515D-06  .150797936367D-01  .996142625809D-05  .515373338127D+04
     .396000000000D+06 -.111758708954D-07  .913736784645D+00 -.201165676117D-06
     .933956975011D+00  .170093750000D+03  .965479173066D+00 -.795854579109D-08
    -.832177520677D-10  .100000000000D+01  .229900000000D+04  .000000000000D+00
     .240000000000D+01  .000000000000D+00  .232830643654D-08  .780000000000D+02
     .388800000000D+06  .400000000000D+01
16 24  2  1 14  0  0.0 -.371999107301D-03  .807176547823D-11  .000000000000D+00
     .950000000000D+02  .661562500000D+02  .470198157069D-08 -.707069970154D+00
     .360235571861D-05  .139911291189D-01  .591017305851D-05  .515372465515D+04
     .396000000000D+06  .113621354103D-06  .214251256658D+01  .242143869400D-06
     .962558443954D+00  .266281250000D+03  .821224361531D+00 -.839320675361D-08
     .439304013061D-10  .100000000000D+01  .229900000000D+04  .000000000000D+00
     .240000000000D+01  .000000000000D+00 -.102445483208D-07  .950000000000D+02
     .388800000000D+06  .400000000000D+01
30 24  2  1 14  0  0.0 -.438155606389D-03  .488853402203D-11  .000000000000D+00
     .101000000000D+03 -.268750000000D+01  .512842790532D-08  .164285475305D+01
    -.372529029846D-08  .674607988913D-02  .106170773506D-04  .515370295906D+04
     .396000000000D+06 -.128522515297D-06  .101111099802D+01  .596046447754D-07
     .935365741715D+00  .164843750000D+03 -.253839740402D+01 -.832320383771D-08
    -.120004998690D-09  .100000000000D+01  .229900000000D+04  .000000000000D+00
     .240000000000D+01  .000000000000D+00  .372529029846D-08  .101000000000D+03
     .388800000000D+06  .400000000000D+01
22 24  2  1 14  0  0.0  .383965671062D-04 -.636646291241D-11  .000000000000D+00
     .104000000000D+03  .576875000000D+02  .476234122777D-08 -.113565664719D+01
     .303611159325D-05  .145869506523D-01  .677071511745D-05  .515371888351D+04
     .396000000000D+06 -.281259417534D-06  .214581368072D+01 -.106170773506D-06
     .961852637183D+00  .252593750000D+03 -.114337399357D+01 -.845249493748D-08
     .978612191697D-10  .100000000000D+01  .229900000000D+04  .000000000000D+00
     .240000000000D+01  .000000000000D+00 -.111758708954D-07  .104000000000D+03
     .388800000000D+06  .400000000000D+01
